{"fetched_at":"2026-03-30T09:12:31Z","count":15922,"tles":[{"name":"STARLINK-32529","line1":"1 62139U 24224A   26087.95334161  .00029573  00000+0  10803-2 0  9999","line2":"2 62139  43.0032  49.5520 0001635 280.6210  79.4458 15.27566231 75360","category":"Starlink"}]}